MEAN_MOTION;ECCENTRICITY;INCLINATION;RA_OF_ASC_NODE;ARG_OF_PERICENTER;MEAN_ANOMALY;BSTAR;MEAN_MOTION_DOT;MEAN_MOTION_DDOT;TYPE
2.00562603;0.0042089;53.2961;128.3138;134.4087;191.3665;0;1.2E-7;0;Navigation
2.00562587;0.0042091;53.2963;128.2918;134.4393;212.0368;0;1.5E-7;0;Navigation
2.00562573;0.0042087;53.2966;128.2665;134.4772;289.5087;0;1.8E-7;0;Navigation
2.00562565;0.0042082;53.2968;128.2496;134.4996;221.7679;0;2.1E-7;0;Navigation
2.00562552;0.0042065;53.297;128.23;134.5319;200.2828;0;2.4E-7;0;Navigation
2.00562535;0.0042047;53.2974;128.1891;134.5922;186.5752;0;2.8E-7;0;Navigation
2.00562535;0.0042047;53.2974;128.1891;134.5922;186.5752;0;2.8E-7;0;Navigation
2.00562517;0.0042039;53.2981;128.1213;134.6881;278.9165;0;2.7E-7;0;Navigation
2.00562516;0.0042034;53.2983;128.1055;134.7092;190.9538;0;2.5E-7;0;Navigation
2.00562516;0.0042034;53.2983;128.1055;134.7092;190.9538;0;2.5E-7;0;Navigation
2.00562514;0.0042048;53.2987;128.0629;134.7654;207.2811;0;1.7E-7;0;Navigation
2.00562515;0.0042017;53.2994;127.9908;134.872;12.5274;0;-2.0E-8;0;Navigation
2.00562517;0.004202;53.2995;127.9805;134.8882;192.035;0;-5.0E-8;0;Navigation
2.00562522;0.004202;53.2999;127.9521;134.9295;322.0536;0;-1.2E-7;0;Navigation
2.00562525;0.0042027;53.3001;127.9266;134.9662;42.3629;0;-1.6E-7;0;Navigation
2.00562525;0.0042027;53.3001;127.9266;134.9662;42.3629;0;-1.6E-7;0;Navigation
2.00562531;0.0042023;53.3005;127.897;135.012;195.1987;0;-2.0E-7;0;Navigation
2.00562534;0.004202;53.3007;127.8744;135.0474;226.6035;0;-2.1E-7;0;Navigation
2.00562537;0.0042018;53.301;127.8554;135.0761;195.6136;0;-2.0E-7;0;Navigation
2.00562543;0.0042014;53.3012;127.8355;135.1052;179.7058;0;-1.8E-7;0;Navigation
2.0056254;0.0042012;53.3015;127.8065;135.1453;322.1802;0;-1.4E-7;0;Navigation
2.00562541;0.0042002;53.302;127.7608;135.2114;32.4022;0;-3.0E-8;0;Navigation
2.0056254;0.0042;53.3022;127.7443;135.231;318.97;0;2.0E-8;0;Navigation
2.0056254;0.0042001;53.3024;127.7219;135.2602;345.2368;0;8.0E-8;0;Navigation
2.00562539;0.0042;53.3026;127.7054;135.279;271.3534;0;1.3E-7;0;Navigation
2.00562532;0.0042004;53.3028;127.6845;135.3042;273.7314;0;2.0E-7;0;Navigation
2.00562526;0.0042006;53.3031;127.66;135.3366;337.8211;0;2.7E-7;0;Navigation
2.00562516;0.0042004;53.3033;127.6413;135.357;301.4268;0;3.2E-7;0;Navigation
2.00562511;0.0042002;53.3035;127.627;135.3753;189.3043;0;3.5E-7;0;Navigation
2.00562491;0.0042006;53.3038;127.5937;135.4218;45.701;0;4.2E-7;0;Navigation
2.00562483;0.0042009;53.3039;127.583;135.4298;229.9323;0;4.4E-7;0;Navigation
2.00562468;0.0042008;53.3042;127.5604;135.4583;261.1818;0;4.7E-7;0;Navigation
2.00562453;0.0041998;53.3044;127.5432;135.4795;199.7931;0;4.9E-7;0;Navigation
2.00562434;0.0041997;53.3046;127.5205;135.5073;232.4303;0;5.0E-7;0;Navigation
2.00562415;0.0041985;53.3049;127.5001;135.527;225.3586;0;5.1E-7;0;Navigation
2.00562383;0.0041984;53.3052;127.474;135.5596;317.8561;0;5.1E-7;0;Navigation
2.00562362;0.004198;53.3054;127.4516;135.5873;346.1726;0;5.1E-7;0;Navigation
2.00562339;0.0041971;53.3057;127.4293;135.6116;10.8496;0;5.0E-7;0;Navigation
2.00562318;0.0041971;53.3059;127.4095;135.6329;354.7619;0;4.9E-7;0;Navigation
2.00562318;0.0041971;53.3059;127.4095;135.6329;354.7619;0;4.9E-7;0;Navigation
2.0056228;0.0041973;53.3064;127.3694;135.674;327.6477;0;4.6E-7;0;Navigation
2.00562259;0.004197;53.3066;127.3471;135.6953;354.9586;0;4.5E-7;0;Navigation
2.00562244;0.0041972;53.3068;127.3298;135.7123;293.1704;0;4.3E-7;0;Navigation
2.00562224;0.0041972;53.307;127.3131;135.7258;223.2862;0;4.3E-7;0;Navigation
2.00562197;0.0041973;53.3073;127.2879;135.7549;300.1168;0;4.2E-7;0;Navigation
2.00562183;0.0041975;53.3075;127.2713;135.7703;226.0499;0;4.2E-7;0;Navigation
2.00562183;0.0041975;53.3075;127.2713;135.7703;226.0499;0;4.2E-7;0;Navigation
2.00562139;0.0041979;53.3083;127.2105;135.8381;199.1084;0;4.4E-7;0;Navigation
2.00562139;0.0041979;53.3083;127.2105;135.8381;199.1084;0;4.4E-7;0;Navigation
2.00562107;0.0041981;53.3088;127.1649;135.8961;267.6556;0;4.9E-7;0;Navigation
2.00562069;0.0041971;53.3093;127.1258;135.9404;224.2847;0;5.4E-7;0;Navigation
2.0056205;0.0041974;53.3095;127.1045;135.9657;233.4136;0;5.7E-7;0;Navigation
2.0056203;0.0041977;53.31;127.0614;136.019;259.4185;0;6.2E-7;0;Navigation
2.00562023;0.0041983;53.3103;127.0406;136.0418;259.4863;0;6.3E-7;0;Navigation
2.00562013;0.0041987;53.3105;127.0209;136.0639;240.7016;0;6.3E-7;0;Navigation
2.00562006;0.0041985;53.3108;126.9927;136.0951;8.8542;0;6.1E-7;0;Navigation
2.00562002;0.0041991;53.3112;126.9615;136.1287;188.7507;0;5.7E-7;0;Navigation
2.00562002;0.0041994;53.3116;126.9296;136.1633;20.6749;0;5.1E-7;0;Navigation
2.00561996;0.0042004;53.312;126.8874;136.2102;30.8257;0;3.9E-7;0;Navigation
2.00561997;0.0042006;53.3122;126.8765;136.2227;219.3591;0;3.6E-7;0;Navigation
2.00562;0.0042013;53.3127;126.8355;136.2685;210.2342;0;2.4E-7;0;Navigation
2.00561997;0.0042019;53.3129;126.8122;136.2958;252.9842;0;1.8E-7;0;Navigation
2.00562001;0.0042028;53.3134;126.7676;136.3514;304.923;0;1.0E-7;0;Navigation
2.00562005;0.0042034;53.3139;126.7289;136.3988;253.8729;0;8.0E-8;0;Navigation
2.00562005;0.0042034;53.3139;126.7289;136.3988;253.8729;0;8.0E-8;0;Navigation
2.00562009;0.0042036;53.3142;126.7098;136.421;225.0051;0;8.0E-8;0;Navigation
2.00562007;0.0042043;53.3145;126.6819;136.456;347.8323;0;1.1E-7;0;Navigation
2.00562015;0.0042047;53.315;126.6446;136.4988;274.3877;0;1.8E-7;0;Navigation
2.00562015;0.0042047;53.315;126.6446;136.4988;274.3877;0;1.8E-7;0;Navigation
2.00562019;0.004205;53.3152;126.6265;136.5201;227.2766;0;2.2E-7;0;Navigation
2.00562018;0.0042056;53.3155;126.6024;136.5476;284.5071;0;2.8E-7;0;Navigation
2.00562015;0.0042074;53.316;126.5612;136.5936;278.7553;0;4.0E-7;0;Navigation
2.00562011;0.0042078;53.3162;126.5417;136.6086;257.0212;0;4.5E-7;0;Navigation
2.00561997;0.0042083;53.3165;126.5144;136.6315;9.7565;0;5.2E-7;0;Navigation
2.0056199;0.0042082;53.3166;126.5024;136.6378;218.3478;0;5.5E-7;0;Navigation
2.00561963;0.0042093;53.3171;126.4595;136.6748;242.0588;0;6.3E-7;0;Navigation
2.00561947;0.0042101;53.3174;126.437;136.6973;270.6979;0;6.6E-7;0;Navigation
2.00561915;0.0042113;53.3179;126.3936;136.7542;304.3405;0;6.9E-7;0;Navigation
2.00561902;0.0042113;53.3181;126.3776;136.7655;222.0022;0;7.0E-7;0;Navigation
2.00561861;0.0042113;53.3186;126.3388;136.8065;173.2276;0;6.9E-7;0;Navigation
2.00561856;0.0042115;53.3186;126.3357;136.8078;227.5851;0;6.9E-7;0;Navigation
2.00561829;0.0042123;53.3189;126.3112;136.8348;292.2455;0;6.8E-7;0;Navigation
2.0056181;0.0042127;53.3192;126.2923;136.849;259.6811;0;6.7E-7;0;Navigation
2.00561784;0.0042133;53.3194;126.2692;136.8702;299.9377;0;6.5E-7;0;Navigation
2.00561784;0.0042133;53.3194;126.2692;136.8702;299.9377;0;6.5E-7;0;Navigation
2.00561784;0.0042133;53.3194;126.2692;136.8702;299.9377;0;6.5E-7;0;Navigation
2.00561688;0.0042156;53.3204;126.1868;136.9188;288.5819;0;5.8E-7;0;Navigation
2.00561688;0.0042156;53.3204;126.1868;136.9188;288.5819;0;5.8E-7;0;Navigation
2.00561603;0.0042185;53.3215;126.0974;137.0058;37.6305;0;5.5E-7;0;Navigation
2.00561603;0.0042185;53.3215;126.0974;137.0058;37.6305;0;5.5E-7;0;Navigation
2.00561559;0.0042198;53.322;126.0568;137.0389;21.4226;0;5.7E-7;0;Navigation
2.0056153;0.0042216;53.3224;126.0189;137.0794;317.4139;0;6.1E-7;0;Navigation
2.00561519;0.0042224;53.3226;126.0018;137.0903;254.2234;0;6.3E-7;0;Navigation
2.00561498;0.0042232;53.323;125.9748;137.1167;2.7643;0;6.6E-7;0;Navigation
2.00561487;0.004224;53.3232;125.9596;137.1242;266.1856;0;6.7E-7;0;Navigation
2.00561468;0.0042248;53.3234;125.9366;137.1419;303.3303;0;6.9E-7;0;Navigation
2.00561457;0.0042253;53.3237;125.9102;137.1622;40.7973;0;7.0E-7;0;Navigation
2.00561449;0.0042261;53.3239;125.8951;137.1822;303.3305;0;7.0E-7;0;Navigation
2.00561441;0.004227;53.3242;125.8684;137.2033;46.3664;0;6.9E-7;0;Navigation
2.00561429;0.0042276;53.3244;125.8535;137.21;304.0934;0;6.7E-7;0;Navigation
2.00561415;0.0042294;53.3249;125.8097;137.2486;343.0542;0;5.9E-7;0;Navigation
2.00561414;0.0042318;53.3254;125.7657;137.2834;24.8952;0;4.7E-7;0;Navigation
2.00561412;0.0042342;53.3258;125.7232;137.3232;40.2594;0;3.3E-7;0;Navigation
2.00561411;0.0042362;53.3263;125.6854;137.3496;336.233;0;2.1E-7;0;Navigation
2.00561413;0.0042385;53.3267;125.6451;137.3961;313.0633;0;1.2E-7;0;Navigation
2.00561416;0.0042391;53.3269;125.6297;137.4069;219.8897;0;9.0E-8;0;Navigation
2.00561425;0.0042409;53.3273;125.5989;137.4492;33.2945;0;6.0E-8;0;Navigation
2.00561426;0.0042414;53.3274;125.5879;137.4562;225.6391;0;5.0E-8;0;Navigation
2.00561429;0.0042427;53.3277;125.5618;137.4789;317.5581;0;6.0E-8;0;Navigation
2.00561434;0.0042437;53.3279;125.5362;137.503;39.7217;0;8.0E-8;0;Navigation
2.00561428;0.0042444;53.3281;125.5201;137.5126;320.1074;0;1.0E-7;0;Navigation
2.00561428;0.0042462;53.3287;125.4745;137.5545;30.567;0;1.9E-7;0;Navigation
2.00561421;0.0042488;53.3291;125.4327;137.5797;34.8667;0;3.0E-7;0;Navigation
2.00561406;0.0042514;53.3295;125.3952;137.595;325.6912;0;3.9E-7;0;Navigation
2.00561383;0.0042542;53.33;125.3494;137.641;39.1739;0;4.8E-7;0;Navigation
2.00561351;0.0042568;53.3305;125.3076;137.6648;44.9027;0;5.3E-7;0;Navigation
2.00561326;0.0042588;53.3308;125.2744;137.6769;259.6391;0;5.5E-7;0;Navigation
2.00561312;0.0042597;53.331;125.256;137.6886;218.912;0;5.6E-7;0;Navigation
2.00561283;0.0042612;53.3313;125.2264;137.7219;12.1847;0;5.5E-7;0;Navigation
2.00561273;0.0042619;53.3314;125.2141;137.7278;224.5974;0;5.5E-7;0;Navigation
2.00561247;0.0042633;53.3317;125.1843;137.7597;21.2223;0;5.3E-7;0;Navigation
2.00561227;0.0042643;53.332;125.1625;137.777;38.5785;0;5.1E-7;0;Navigation
2.00561227;0.0042643;53.332;125.1625;137.777;38.5785;0;5.1E-7;0;Navigation
2.00561227;0.0042643;53.332;125.1625;137.777;38.5785;0;5.1E-7;0;Navigation
2.00561112;0.0042699;53.333;125.0642;137.8337;303.5763;0;4.0E-7;0;Navigation
2.00561112;0.0042699;53.333;125.0642;137.8337;303.5763;0;4.0E-7;0;Navigation
2.00561077;0.0042726;53.3334;125.0272;137.8468;224.0064;0;3.7E-7;0;Navigation
